PROBA-1                 
1 26958U 01049B   26115.96091260  .00002435  00000+0  16080-3 0  9993
2 26958  97.9623 122.6741 0054044 300.3509  59.2379 15.07294087335759
CUTE-1 (CO-55)          
1 27844U 03031E   26115.77207239  .00000259  00000+0  13095-3 0  9990
2 27844  98.6757 124.9877 0009142 345.2337  14.8573 14.24301725184213
CUBESAT XI-IV (CO-57)   
1 27848U 03031J   26115.94518094  .00000257  00000+0  13187-3 0  9997
2 27848  98.6790 124.9135 0009431   3.4724 356.6519 14.23591802183947
APRIZESAT 4             
1 35684U 09041D   26115.72634659  .00000758  00000+0  96939-4 0  9996
2 35684  98.1424 190.0017 0044421 130.7481 229.7603 14.83797081903585
APRIZESAT 3             
1 35686U 09041F   26115.93296260  .00001229  00000+0  11139-3 0  9995
2 35686  98.1994 266.6804 0060870 239.1237 120.3988 14.96057885908562
PROBA-2                 
1 36037U 09059B   26115.76434153  .00000171  00000+0  50301-4 0  9991
2 36037  98.2451 299.8446 0014569  83.6741 276.6115 14.54839118873905
APRIZESAT 5             
1 37792U 11044E   26115.78187305  .00000735  00000+0  10021-3 0  9993
2 37792  98.2435  47.3492 0052451 170.0363 190.1902 14.80968305791033
APRIZESAT 6             
1 37793U 11044F   26115.70781365  .00000586  00000+0  90313-4 0  9999
2 37793  98.2390  25.1312 0041833 253.4905 170.0029 14.76842626789406
PROBA-V                 
1 39159U 13021A   26115.89736648  .00000086  00000+0  55918-4 0  9995
2 39159  98.3560  97.0948 0003037 293.6996  66.3865 14.23585503673673
APRIZESAT 7             
1 39416U 13066A   26115.82542282  .00001440  00000+0  14799-3 0  9998
2 39416  97.7667  69.8157 0036660  27.1720 333.1407 14.91431282673421
APRIZESAT 8             
1 39425U 13066K   26115.81026667  .00000952  00000+0  10889-3 0  9994
2 39425  97.8182  64.0265 0047519  97.9892 262.6720 14.87534638671887
BUGSAT-1 (TITA)         
1 40014U 14033E   26115.93484154  .00004057  00000+0  21894-3 0  9995
2 40014  98.0397 205.4565 0028242   2.0916 358.0427 15.15046247647922
SAUDISAT 4              
1 40016U 14033G   26115.83950341  .00000765  00000+0  10774-3 0  9999
2 40016  97.7510 263.8078 0043578 242.8791 116.7974 14.79464941638333
APRIZESAT 9             
1 40018U 14033J   26115.94365624  .00000538  00000+0  86506-4 0  9992
2 40018  97.8979 250.4431 0066351   9.5054 350.7393 14.74154476635868
APRIZESAT 10            
1 40019U 14033K   26115.88109577  .00000609  00000+0  10296-3 0  9990
2 40019  97.9568 244.0325 0080205  81.0576 279.9700 14.70833553634569
TECHDEMOSAT-1 (TDS-1)   
1 40076U 14037H   26115.90754658  .00010863  00000+0  62830-3 0  9990
2 40076  98.3812 102.9805 0008124  86.9262 273.2896 15.12447239640323
