[{"OBJECT_NAME":"PROBA-1","OBJECT_ID":"2001-049B","EPOCH":"2026-04-25T23:03:42.848640","MEAN_MOTION":15.07294087,"ECCENTRICITY":0.00540449,"INCLINATION":97.9623,"RA_OF_ASC_NODE":122.6741,"ARG_OF_PERICENTER":300.3509,"MEAN_ANOMALY":59.2379,"EPHEMERIS_TYPE":0,"CLASSIFICATION_TYPE":"U","NORAD_CAT_ID":26958,"ELEMENT_SET_NO":999,"REV_AT_EPOCH":33575,"BSTAR":0.00016079653,"MEAN_MOTION_DOT":2.435e-5,"MEAN_MOTION_DDOT":0},{"OBJECT_NAME":"CUTE-1 (CO-55)","OBJECT_ID":"2003-031E","EPOCH":"2026-04-25T18:31:47.054496","MEAN_MOTION":14.24301725,"ECCENTRICITY":0.00091422,"INCLINATION":98.6757,"RA_OF_ASC_NODE":124.9877,"ARG_OF_PERICENTER":345.2337,"MEAN_ANOMALY":14.8573,"EPHEMERIS_TYPE":0,"CLASSIFICATION_TYPE":"U","NORAD_CAT_ID":27844,"ELEMENT_SET_NO":999,"REV_AT_EPOCH":18421,"BSTAR":0.00013095489,"MEAN_MOTION_DOT":2.59e-6,"MEAN_MOTION_DDOT":0},{"OBJECT_NAME":"CUBESAT XI-IV (CO-57)","OBJECT_ID":"2003-031J","EPOCH":"2026-04-25T22:41:03.633216","MEAN_MOTION":14.23591802,"ECCENTRICITY":0.00094313,"INCLINATION":98.679,"RA_OF_ASC_NODE":124.9135,"ARG_OF_PERICENTER":3.4724,"MEAN_ANOMALY":356.6519,"EPHEMERIS_TYPE":0,"CLASSIFICATION_TYPE":"U","NORAD_CAT_ID":27848,"ELEMENT_SET_NO":999,"REV_AT_EPOCH":18394,"BSTAR":0.0001318734,"MEAN_MOTION_DOT":2.57e-6,"MEAN_MOTION_DDOT":0},{"OBJECT_NAME":"APRIZESAT 4","OBJECT_ID":"2009-041D","EPOCH":"2026-04-25T17:25:56.345376","MEAN_MOTION":14.83797081,"ECCENTRICITY":0.00444215,"INCLINATION":98.1424,"RA_OF_ASC_NODE":190.0017,"ARG_OF_PERICENTER":130.7481,"MEAN_ANOMALY":229.7603,"EPHEMERIS_TYPE":0,"CLASSIFICATION_TYPE":"U","NORAD_CAT_ID":35684,"ELEMENT_SET_NO":999,"REV_AT_EPOCH":90358,"BSTAR":9.6938797e-5,"MEAN_MOTION_DOT":7.58e-6,"MEAN_MOTION_DDOT":0},{"OBJECT_NAME":"APRIZESAT 3","OBJECT_ID":"2009-041F","EPOCH":"2026-04-25T22:23:27.968640","MEAN_MOTION":14.96057885,"ECCENTRICITY":0.00608702,"INCLINATION":98.1994,"RA_OF_ASC_NODE":266.6804,"ARG_OF_PERICENTER":239.1237,"MEAN_ANOMALY":120.3988,"EPHEMERIS_TYPE":0,"CLASSIFICATION_TYPE":"U","NORAD_CAT_ID":35686,"ELEMENT_SET_NO":999,"REV_AT_EPOCH":90856,"BSTAR":0.00011138918,"MEAN_MOTION_DOT":1.229e-5,"MEAN_MOTION_DDOT":0},{"OBJECT_NAME":"PROBA-2","OBJECT_ID":"2009-059B","EPOCH":"2026-04-25T18:20:39.108192","MEAN_MOTION":14.54839118,"ECCENTRICITY":0.00145697,"INCLINATION":98.2451,"RA_OF_ASC_NODE":299.8446,"ARG_OF_PERICENTER":83.6741,"MEAN_ANOMALY":276.6115,"EPHEMERIS_TYPE":0,"CLASSIFICATION_TYPE":"U","NORAD_CAT_ID":36037,"ELEMENT_SET_NO":999,"REV_AT_EPOCH":87390,"BSTAR":5.0301285e-5,"MEAN_MOTION_DOT":1.71e-6,"MEAN_MOTION_DDOT":0},{"OBJECT_NAME":"APRIZESAT 5","OBJECT_ID":"2011-044E","EPOCH":"2026-04-25T18:45:53.831520","MEAN_MOTION":14.80968305,"ECCENTRICITY":0.00524512,"INCLINATION":98.2435,"RA_OF_ASC_NODE":47.3492,"ARG_OF_PERICENTER":170.0363,"MEAN_ANOMALY":190.1902,"EPHEMERIS_TYPE":0,"CLASSIFICATION_TYPE":"U","NORAD_CAT_ID":37792,"ELEMENT_SET_NO":999,"REV_AT_EPOCH":79103,"BSTAR":0.00010021325,"MEAN_MOTION_DOT":7.35e-6,"MEAN_MOTION_DDOT":0},{"OBJECT_NAME":"APRIZESAT 6","OBJECT_ID":"2011-044F","EPOCH":"2026-04-25T16:59:15.099360","MEAN_MOTION":14.76842626,"ECCENTRICITY":0.00418335,"INCLINATION":98.239,"RA_OF_ASC_NODE":25.1312,"ARG_OF_PERICENTER":253.4905,"MEAN_ANOMALY":170.0029,"EPHEMERIS_TYPE":0,"CLASSIFICATION_TYPE":"U","NORAD_CAT_ID":37793,"ELEMENT_SET_NO":999,"REV_AT_EPOCH":78940,"BSTAR":9.0312881e-5,"MEAN_MOTION_DOT":5.86e-6,"MEAN_MOTION_DDOT":0},{"OBJECT_NAME":"PROBA-V","OBJECT_ID":"2013-021A","EPOCH":"2026-04-25T21:32:12.463872","MEAN_MOTION":14.23585503,"ECCENTRICITY":0.0003037,"INCLINATION":98.356,"RA_OF_ASC_NODE":97.0948,"ARG_OF_PERICENTER":293.6996,"MEAN_ANOMALY":66.3865,"EPHEMERIS_TYPE":0,"CLASSIFICATION_TYPE":"U","NORAD_CAT_ID":39159,"ELEMENT_SET_NO":999,"REV_AT_EPOCH":67367,"BSTAR":5.5918318e-5,"MEAN_MOTION_DOT":8.6e-7,"MEAN_MOTION_DDOT":0},{"OBJECT_NAME":"APRIZESAT 7","OBJECT_ID":"2013-066A","EPOCH":"2026-04-25T19:48:36.531648","MEAN_MOTION":14.91431282,"ECCENTRICITY":0.00366607,"INCLINATION":97.7667,"RA_OF_ASC_NODE":69.8157,"ARG_OF_PERICENTER":27.172,"MEAN_ANOMALY":333.1407,"EPHEMERIS_TYPE":0,"CLASSIFICATION_TYPE":"U","NORAD_CAT_ID":39416,"ELEMENT_SET_NO":999,"REV_AT_EPOCH":67342,"BSTAR":0.00014798961,"MEAN_MOTION_DOT":1.44e-5,"MEAN_MOTION_DDOT":0},{"OBJECT_NAME":"APRIZESAT 8","OBJECT_ID":"2013-066K","EPOCH":"2026-04-25T19:26:47.040288","MEAN_MOTION":14.87534638,"ECCENTRICITY":0.00475193,"INCLINATION":97.8182,"RA_OF_ASC_NODE":64.0265,"ARG_OF_PERICENTER":97.9892,"MEAN_ANOMALY":262.672,"EPHEMERIS_TYPE":0,"CLASSIFICATION_TYPE":"U","NORAD_CAT_ID":39425,"ELEMENT_SET_NO":999,"REV_AT_EPOCH":67188,"BSTAR":0.00010889323,"MEAN_MOTION_DOT":9.52e-6,"MEAN_MOTION_DDOT":0},{"OBJECT_NAME":"BUGSAT-1 (TITA)","OBJECT_ID":"2014-033E","EPOCH":"2026-04-25T22:26:10.309056","MEAN_MOTION":15.15046247,"ECCENTRICITY":0.00282426,"INCLINATION":98.0397,"RA_OF_ASC_NODE":205.4565,"ARG_OF_PERICENTER":2.0916,"MEAN_ANOMALY":358.0427,"EPHEMERIS_TYPE":0,"CLASSIFICATION_TYPE":"U","NORAD_CAT_ID":40014,"ELEMENT_SET_NO":999,"REV_AT_EPOCH":64792,"BSTAR":0.00021893767,"MEAN_MOTION_DOT":4.057e-5,"MEAN_MOTION_DDOT":0},{"OBJECT_NAME":"SAUDISAT 4","OBJECT_ID":"2014-033G","EPOCH":"2026-04-25T20:08:53.094624","MEAN_MOTION":14.79464941,"ECCENTRICITY":0.00435788,"INCLINATION":97.751,"RA_OF_ASC_NODE":263.8078,"ARG_OF_PERICENTER":242.8791,"MEAN_ANOMALY":116.7974,"EPHEMERIS_TYPE":0,"CLASSIFICATION_TYPE":"U","NORAD_CAT_ID":40016,"ELEMENT_SET_NO":999,"REV_AT_EPOCH":63833,"BSTAR":0.00010774066,"MEAN_MOTION_DOT":7.65e-6,"MEAN_MOTION_DDOT":0},{"OBJECT_NAME":"APRIZESAT 9","OBJECT_ID":"2014-033J","EPOCH":"2026-04-25T22:38:51.899136","MEAN_MOTION":14.74154476,"ECCENTRICITY":0.00663519,"INCLINATION":97.8979,"RA_OF_ASC_NODE":250.4431,"ARG_OF_PERICENTER":9.5054,"MEAN_ANOMALY":350.7393,"EPHEMERIS_TYPE":0,"CLASSIFICATION_TYPE":"U","NORAD_CAT_ID":40018,"ELEMENT_SET_NO":999,"REV_AT_EPOCH":63586,"BSTAR":8.6505784e-5,"MEAN_MOTION_DOT":5.38e-6,"MEAN_MOTION_DDOT":0},{"OBJECT_NAME":"APRIZESAT 10","OBJECT_ID":"2014-033K","EPOCH":"2026-04-25T21:08:46.674528","MEAN_MOTION":14.70833553,"ECCENTRICITY":0.00802058,"INCLINATION":97.9568,"RA_OF_ASC_NODE":244.0325,"ARG_OF_PERICENTER":81.0576,"MEAN_ANOMALY":279.97,"EPHEMERIS_TYPE":0,"CLASSIFICATION_TYPE":"U","NORAD_CAT_ID":40019,"ELEMENT_SET_NO":999,"REV_AT_EPOCH":63456,"BSTAR":0.00010296203,"MEAN_MOTION_DOT":6.09e-6,"MEAN_MOTION_DDOT":0},{"OBJECT_NAME":"TECHDEMOSAT-1 (TDS-1)","OBJECT_ID":"2014-037H","EPOCH":"2026-04-25T21:46:52.024512","MEAN_MOTION":15.12447239,"ECCENTRICITY":0.00081244,"INCLINATION":98.3812,"RA_OF_ASC_NODE":102.9805,"ARG_OF_PERICENTER":86.9262,"MEAN_ANOMALY":273.2896,"EPHEMERIS_TYPE":0,"CLASSIFICATION_TYPE":"U","NORAD_CAT_ID":40076,"ELEMENT_SET_NO":999,"REV_AT_EPOCH":64032,"BSTAR":0.00062830246,"MEAN_MOTION_DOT":0.00010863,"MEAN_MOTION_DDOT":0}]
